CTC1_L_00554024-03
1 45118U 22490GM  26037.47809028  .00000000  00000+0  00000-0 0  9991
2 45118  97.4000 276.0000 0000000   0.0000 228.0000 15.18623352    15
CTC1_L_00554024-04
1 45119U 25477AC  26037.47809028  .00000000  00000+0  00000-0 0  9990
2 45119  97.4000 276.0000 0000000   0.0000 273.0000 15.18623352    16
CTC1_L_00554024-05
1 45120U 25206KY  26037.47809028  .00000000  00000+0  00000-0 0  9992
2 45120  97.4000 276.0000 0000000   0.0000 318.0000 15.18623352    18
CTC1_L_00554024-06
1 45121U 22645SL  26037.47809028  .00000000  00000+0  00000-0 0  9997
2 45121  97.4000 276.0000 0000000   0.0000   3.0000 15.18623352    10
CTC1_L_00554024-07
1 45122U 22288GZ  26037.47809028  .00000000  00000+0  00000-0 0  9991
2 45122  97.4000 276.0000 0000000   0.0000  48.0000 15.18623352    10
CTC1_L_00554024-08
1 45123U 22005NU  26037.47809028  .00000000  00000+0  00000-0 0  9999
2 45123  97.4000 276.0000 0000000   0.0000  93.0000 15.18623352    11
CTC1_L_00554025-01
1 45124U 22480CU  26037.47809028  .00000000  00000+0  00000-0 0  9997
2 45124  97.4000 288.0000 0000000   0.0000 144.0000 15.18623352    12
CTC1_L_00554025-02
1 45125U 23128FK  26037.47809028  .00000000  00000+0  00000-0 0  9998
2 45125  97.4000 288.0000 0000000   0.0000 189.0000 15.18623352    12
CTC1_L_00554025-03
1 45126U 25391IY  26037.47809028  .00000000  00000+0  00000-0 0  9993
2 45126  97.4000 288.0000 0000000   0.0000 234.0000 15.18623352    14
CTC1_L_00554025-04
1 45127U 25899UG  26037.47809028  .00000000  00000+0  00000-0 0  9997
2 45127  97.4000 288.0000 0000000   0.0000 279.0000 15.18623352    14
CTC1_L_00554025-05
1 45128U 26039QB  26037.47809028  .00000000  00000+0  00000-0 0  9995
2 45128  97.4000 288.0000 0000000   0.0000 324.0000 15.18623352    16
CTC1_L_00554025-06
1 45129U 24386UO  26037.47809028  .00000000  00000+0  00000-0 0  9999
2 45129  97.4000 288.0000 0000000   0.0000   9.0000 15.18623352    17
CTC1_L_00554025-07
1 45130U 22908XQ  26037.47809028  .00000000  00000+0  00000-0 0  9999
2 45130  97.4000 288.0000 0000000   0.0000  54.0000 15.18623352    19
CTC1_L_00554025-08
1 45131U 25722CB  26037.47809028  .00000000  00000+0  00000-0 0  9997
2 45131  97.4000 288.0000 0000000   0.0000  99.0000 15.18623352    19
CTC1_L_00554026-01
1 45132U 26988OS  26037.47809028  .00000000  00000+0  00000-0 0  9993
2 45132  97.4000 300.0000 0000000   0.0000 150.0000 15.18623352    13
CTC1_L_00554026-02
1 45133U 22689MW  26037.47809028  .00000000  00000+0  00000-0 0  9998
2 45133  97.4000 300.0000 0000000   0.0000 195.0000 15.18623352    13
CTC1_L_00554026-03
1 45134U 24764QS  26037.47809028  .00000000  00000+0  00000-0 0  9995
2 45134  97.4000 300.0000 0000000   0.0000 240.0000 15.18623352    15
CTC1_L_00554026-04
1 45135U 23928LB  26037.47809028  .00000000  00000+0  00000-0 0  9997
2 45135  97.4000 300.0000 0000000   0.0000 285.0000 15.18623352    15
CTC1_L_00554026-05
1 45136U 25943DR  26037.47809028  .00000000  00000+0  00000-0 0  9997
2 45136  97.4000 300.0000 0000000   0.0000 330.0000 15.18623352    17
CTC1_L_00554026-06
1 45137U 26499TB  26037.47809028  .00000000  00000+0  00000-0 0  9995
2 45137  97.4000 300.0000 0000000   0.0000  15.0000 15.18623352    18
CTC1_L_00554026-07
1 45138U 22631CC  26037.47809028  .00000000  00000+0  00000-0 0  9990
2 45138  97.4000 300.0000 0000000   0.0000  60.0000 15.18623352    19
CTC1_L_00554026-08
1 45139U 22999DN  26037.47809028  .00000000  00000+0  00000-0 0  9998
2 45139  97.4000 300.0000 0000000   0.0000 105.0000 15.18623352    10
CTC1_L_00554027-01
1 45140U 26868I   26037.47809028  .00000000  00000+0  00000-0 0  9999
2 45140  97.4000 312.0000 0000000   0.0000 156.0000 15.18623352    11
CTC1_L_00554027-02
1 45141U 25294FZ  26037.47809028  .00000000  00000+0  00000-0 0  9992
2 45141  97.4000 312.0000 0000000   0.0000 201.0000 15.18623352    13
CTC1_L_00554027-03
1 45142U 26151SD  26037.47809028  .00000000  00000+0  00000-0 0  9996
2 45142  97.4000 312.0000 0000000   0.0000 246.0000 15.18623352    13
CTC1_L_00554027-04
1 45143U 26071OW  26037.47809028  .00000000  00000+0  00000-0 0  9998
2 45143  97.4000 312.0000 0000000   0.0000 291.0000 15.18623352    14
CTC1_L_00554027-05
1 45144U 24170II  26037.47809028  .00000000  00000+0  00000-0 0  9997
2 45144  97.4000 312.0000 0000000   0.0000 336.0000 15.18623352    15
CTC1_L_00554027-06
1 45145U 24890DP  26037.47809028  .00000000  00000+0  00000-0 0  9997
2 45145  97.4000 312.0000 0000000   0.0000  21.0000 15.18623352    17
CTC1_L_00554027-07
1 45146U 24951AW  26037.47809028  .00000000  00000+0  00000-0 0  9996
2 45146  97.4000 312.0000 0000000   0.0000  66.0000 15.18623352    17
CTC1_L_00554027-08
1 45147U 26948GO  26037.47809028  .00000000  00000+0  00000-0 0  9995
2 45147  97.4000 312.0000 0000000   0.0000 111.0000 15.18623352    19
CTC1_L_00554028-01
1 45148U 23129CZ  26037.47809028  .00000000  00000+0  00000-0 0  9994
2 45148  97.4000 324.0000 0000000   0.0000 162.0000 15.18623352    19
CTC1_L_00554028-02
1 45149U 23909XD  26037.47809028  .00000000  00000+0  00000-0 0  9991
2 45149  97.4000 324.0000 0000000   0.0000 207.0000 15.18623352    10
CTC1_L_00554028-03
1 45150U 25850II  26037.47809028  .00000000  00000+0  00000-0 0  9990
2 45150  97.4000 324.0000 0000000   0.0000 252.0000 15.18623352    12
CTC1_L_00554028-04
1 45151U 22936DB  26037.47809028  .00000000  00000+0  00000-0 0  9993
2 45151  97.4000 324.0000 0000000   0.0000 297.0000 15.18623352    12
CTC1_L_00554028-05
1 45152U 25746GA  26037.47809028  .00000000  00000+0  00000-0 0  9996
2 45152  97.4000 324.0000 0000000   0.0000 342.0000 15.18623352    14
CTC1_L_00554028-06
1 45153U 23668OO  26037.47809028  .00000000  00000+0  00000-0 0  9998
2 45153  97.4000 324.0000 0000000   0.0000  27.0000 15.18623352    15
CTC1_L_00554028-07
1 45154U 24205FC  26037.47809028  .00000000  00000+0  00000-0 0  9997
2 45154  97.4000 324.0000 0000000   0.0000  72.0000 15.18623352    16
CTC1_L_00554028-08
1 45155U 24895RR  26037.47809028  .00000000  00000+0  00000-0 0  9993
2 45155  97.4000 324.0000 0000000   0.0000 117.0000 15.18623352    17
CTC1_L_00554029-01
1 45156U 25104KB  26037.47809028  .00000000  00000+0  00000-0 0  9998
2 45156  97.4000 336.0000 0000000   0.0000 168.0000 15.18623352    17
CTC1_L_00554029-02
1 45157U 26176GR  26037.47809028  .00000000  00000+0  00000-0 0  9999
2 45157  97.4000 336.0000 0000000   0.0000 213.0000 15.18623352    19
CTC1_L_00554029-03
1 45158U 22238CT  26037.47809028  .00000000  00000+0  00000-0 0  9995
2 45158  97.4000 336.0000 0000000   0.0000 258.0000 15.18623352    19
CTC1_L_00554029-04
1 45159U 24251LB  26037.47809028  .00000000  00000+0  00000-0 0  9993
2 45159  97.4000 336.0000 0000000   0.0000 303.0000 15.18623352    11
CTC1_L_00554029-05
1 45160U 24734JE  26037.47809028  .00000000  00000+0  00000-0 0  9991
2 45160  97.4000 336.0000 0000000   0.0000 348.0000 15.18623352    12
CTC1_L_00554029-06
1 45161U 24436NE  26037.47809028  .00000000  00000+0  00000-0 0  9991
2 45161  97.4000 336.0000 0000000   0.0000  33.0000 15.18623352    14
CTC1_L_00554029-07
1 45162U 25566YU  26037.47809028  .00000000  00000+0  00000-0 0  9997
2 45162  97.4000 336.0000 0000000   0.0000  78.0000 15.18623352    14
CTC1_L_00554029-08
1 45163U 22312LU  26037.47809028  .00000000  00000+0  00000-0 0  9994
2 45163  97.4000 336.0000 0000000   0.0000 123.0000 15.18623352    16
CTC1_L_00554030-01
1 45164U 24704RP  26037.47809028  .00000000  00000+0  00000-0 0  9992
2 45164  97.4000 348.0000 0000000   0.0000 174.0000 15.18623352    16
CTC1_L_00554030-02
1 45165U 23709SM  26037.47809028  .00000000  00000+0  00000-0 0  9997
2 45165  97.4000 348.0000 0000000   0.0000 219.0000 15.18623352    17
CTC1_L_00554030-03
1 45166U 25739LT  26037.47809028  .00000000  00000+0  00000-0 0  9993
2 45166  97.4000 348.0000 0000000   0.0000 264.0000 15.18623352    18
CTC1_L_00554030-04
1 45167U 23460CJ  26037.47809028  .00000000  00000+0  00000-0 0  9993
2 45167  97.4000 348.0000 0000000   0.0000 309.0000 15.18623352    19
CTC1_L_00554030-05
1 45168U 24496ZW  26037.47809028  .00000000  00000+0  00000-0 0  9994
2 45168  97.4000 348.0000 0000000   0.0000 354.0000 15.18623352    10
CTC1_L_00554030-06
1 45169U 23156P   26037.47809028  .00000000  00000+0  00000-0 0  9997
2 45169  97.4000 348.0000 0000000   0.0000  39.0000 15.18623352    11
CTC1_L_00554030-07
1 45170U 23650NB  26037.47809028  .00000000  00000+0  00000-0 0  9998
2 45170  97.4000 348.0000 0000000   0.0000  84.0000 15.18623352    13
CTC1_L_00554030-08
1 45171U 23636DR  26037.47809028  .00000000  00000+0  00000-0 0  9993
2 45171  97.4000 348.0000 0000000   0.0000 129.0000 15.18623352    14
